INTERCOSMOS 24          
1 20261U 89080A   25212.47238957  .00000781  00000+0  22062-3 0  9993
2 20261  82.6020 248.2591 1191041  86.0386 287.5700 12.59106109638954
SL-14 R/B               
1 20262U 89080C   25212.55206924  .00000175  00000+0  50898-4 0  9998
2 20262  82.5966 315.1949 1230536 330.2684  23.3584 12.50321691632510
DELTA 1 R/B             
1 20323U 89089B   25212.60416194  .00000345  00000+0  94241-4 0  9992
2 20323  97.0979  89.9647 0070901 100.7608 260.1582 14.50423810863688
ARIANE 40 R/B           
1 20443U 90005H   25212.60795799  .00000283  00000+0  10392-3 0  9991
2 20443  98.3432 274.4365 0010926 144.8588 215.3323 14.39664605860996
DELTA 2 R/B(1)          
1 20453U 90008B   25212.32832994  .00035030  00000+0  75062-3 0  9996
2 20453  35.6074 161.2504 0131543  38.3944 322.6062 15.34993503891908
COSMOS 2058             
1 20465U 90010A   25212.61002250  .00003228  00000+0  20170-3 0  9992
2 20465  82.4737 264.7647 0008008  24.2585 335.9020 15.09125916908871
SL-14 R/B               
1 20466U 90010B   25212.23924428  .00000418  00000+0  48066-4 0  9994
2 20466  82.5032 115.3379 0018787 313.0431  46.9209 14.83294186895654
SL-14 R/B               
1 20511U 90018B   25212.58473192  .00000400  00000+0  47474-4 0  9991
2 20511  82.5193  69.7313 0017854  98.9340 261.3896 14.81875642889833
HST                     
1 20580U 90037B   25212.40059375  .00006715  00000+0  24764-3 0  9993
2 20580  28.4676 105.1321 0001755 215.3514 144.6964 15.25728074739444
SL-16 R/B               
1 20625U 90046B   25212.64072275  .00000261  00000+0  15958-3 0  9998
2 20625  70.9988  42.1378 0016205 279.0265  80.9024 14.14969346817127
COSMOS 2084             
1 20663U 90055A   25212.63217197  .00003720  00000+0  27489-3 0  9998
2 20663  62.7921   8.5205 0054093 159.2175 201.1142 15.03896650903058
SL-6 R/B(2)             
1 20666U 90055D   25212.53678477  .00002023  00000+0  16714-3 0  9996
2 20666  62.7839 285.0736 0019553 204.8793 155.1365 15.02196549904959
SL-8 R/B                
1 20775U 90078B   25212.61039848  .00023610  00000+0  76802-3 0  9993
2 20775  82.9058  88.6754 0398454  32.8167 329.7121 14.79579328776508
SL-8 R/B                
1 21088U 91006B   25212.44485280  .00000102  00000+0  87493-4 0  9999
2 21088  82.9456 334.6297 0021200 296.3035 129.4237 13.77466947733614
OKEAN-3                 
1 21397U 91039A   25212.50985615  .00002977  00000+0  21903-3 0  9997
2 21397  82.5176 190.8230 0014674  11.1341 349.0206 15.02975348831795
COSMOS 2151             
1 21422U 91042A   25212.61075810  .00001698  00000+0  13779-3 0  9990
2 21422  82.4981 296.6909 0014076  87.7397 272.5438 14.98987479830069
SL-14 R/B               
1 21423U 91042B   25212.59209445  .00000362  00000+0  43149-4 0  9993
2 21423  82.4909  67.4960 0015701 245.8472 114.1101 14.81573590820332
ERS-1                   
1 21574U 91050A   25212.56605768  .00000322  00000+0  11804-3 0  9992
2 21574  98.7927 220.2127 0032894 136.6743 223.7039 14.39223390783926
ARIANE 40 R/B           
1 21610U 91050F   25212.58760789  .00000321  00000+0  10930-3 0  9998
2 21610  98.2365 267.7073 0003770  43.7747 316.3742 14.42665570787116
INTERCOSMOS 25          
1 21819U 91086A   25212.26418507  .00000971  00000+0  19229-3 0  9992
2 21819  82.6024  83.8151 1489614 233.9955 111.3915 12.11131690469870
SL-8 R/B                
1 21876U 92008B   25212.58591764  .00000108  00000+0  95413-4 0  9994
2 21876  82.9243  72.2162 0035537  34.0952  23.3360 13.75939500679012
SL-8 R/B                
1 21938U 92020B   25212.64662001  .00000087  00000+0  74815-4 0  9996
2 21938  82.9332 317.9225 0028875 192.2198 290.0735 13.75517446670746
USA 81                  
1 21949U 92023A   25212.62037270  .00000150  00000+0  48171-4 0  9990
2 21949  85.0048 258.9404 0002359  73.0573 287.0878 14.32257108 63145
COSMOS 2219             
1 22219U 92076A   25212.17698449 -.00000219  00000+0 -90257-4 0  9990
2 22219  71.0610 121.1163 0018110 186.7151 173.3732 14.14035859687061
SL-16 R/B               
1 22220U 92076B   25212.65386095  .00000099  00000+0  73398-4 0  9997
2 22220  71.0006 293.9677 0010743  68.3095  37.5876 14.16810766690521
COSMOS 2221             
1 22236U 92080A   25212.51847141  .00001841  00000+0  16580-3 0  9993
2 22236  82.5060 130.7010 0013562 210.1845 149.8597 14.95020845747737
SL-16 R/B               
1 22285U 92093B   25212.11432283  .00000287  00000+0  17160-3 0  9992
2 22285  71.0216 109.3986 0006308 280.1822  79.8589 14.15401225681808
COSMOS 2228             
1 22286U 92094A   25212.60652151  .00001927  00000+0  16962-3 0  9997
2 22286  82.5168  88.7761 0017769 331.0945  28.9291 14.95875908742992
SL-16 R/B               
1 22566U 93016B   25212.62746502  .00000231  00000+0  14303-3 0  9993
2 22566  71.0092 319.4640 0012150 294.7765  65.2093 14.15261773670890
COSMOS 2242             
1 22626U 93024A   25212.23167884  .00002123  00000+0  18989-3 0  9992
2 22626  82.5199 118.3109 0016037 335.9103  24.1366 14.95324469747285
SL-16 R/B               
1 22803U 93059B   25212.48340724  .00000244  00000+0  14461-3 0  9993
2 22803  70.9907 117.5931 0017547 194.5346 165.5276 14.17182920648197
ARIANE 40 R/B           
1 22830U 93061H   25212.60181330  .00000206  00000+0  91735-4 0  9994
2 22830  98.5244 280.4548 0010129 213.2292 146.8257 14.32684308662448
COSMOS 2278             
1 23087U 94023A   25212.58054959  .00000309  00000+0  18647-3 0  9995
2 23087  71.0526 277.6770 0008795 353.6649   6.4361 14.14306397613541
SL-16 R/B               
1 23088U 94023B   25212.58777027  .00000183  00000+0  11899-3 0  9996
2 23088  70.9985 175.2050 0005455 271.4899  88.5598 14.14970908614816
SL-16 R/B               
1 23343U 94074B   25212.60947920  .00000473  00000+0  70535-4 0  9995
2 23343  97.7368 247.0998 0005793 210.4430 263.7598 14.79083878654565
SL-16 R/B               
1 23405U 94077B   25212.37292437  .00000172  00000+0  11225-3 0  9993
2 23405  70.9825  98.0857 0002093 193.6978 166.4088 14.15521460584910
ARIANE 40+ R/B          
1 23561U 95021B   25212.44717767  .00000266  00000+0  99236-4 0  9995
2 23561  98.4811 281.5465 0007949  86.7459 283.8845 14.39559502587415
SL-16 R/B               
1 23705U 95058B   25212.58093767  .00000123  00000+0  87113-4 0  9990
2 23705  71.0218 284.4570 0010341  97.9485 262.2812 14.15457426536566
SL-16 R/B               
1 24298U 96051B   25212.56390676 -.00000153  00000+0 -56172-4 0  9995
2 24298  70.7647 283.2513 0013179 104.2053 256.0531 14.12404250490422
ORBVIEW 2 (SEASTAR)     
1 24883U 97037A   25212.44562648  .00000309  00000+0  12430-3 0  9996
2 24883  98.8318   6.2582 0002286  20.8101 339.3176 14.35278639476734
SL-16 R/B               
1 25400U 98043G   25212.57113833  .00000070  00000+0  48044-4 0  9998
2 25400  98.7892 159.8141 0008895 299.5634  60.4659 14.25981054407474
SL-16 R/B               
1 25407U 98045B   25212.62954118 -.00000237  00000+0 -95813-4 0  9995
2 25407  71.0113 286.4451 0007780 344.9522  15.1368 14.16146293395800
ISS (ZARYA)             
1 25544U 98067A   25212.49633447  .00014835  00000+0  26505-3 0  9993
2 25544  51.6360  87.4558 0002244 133.0817 290.4711 15.50253490522035
CZ-4B R/B               
1 25732U 99025C   25212.64235516  .00000039  00000+0  39812-4 0  9996
2 25732  98.6968 256.7556 0036057 260.1148 211.6796 14.18200822356831
OKEAN-O                 
1 25860U 99039A   25212.58614230  .00000706  00000+0  10059-3 0  9992
2 25860  97.9803 269.3063 0001218  67.9358 292.1983 14.79863278401686
SL-16 R/B               
1 25861U 99039B   25212.57733547  .00000557  00000+0  78282-4 0  9992
2 25861  98.0329 266.5686 0013599 253.0041 106.9681 14.81330990404126
DELTA 2 R/B             
1 25876U 99041E   25212.22205423  .00002652  00000+0  46660-3 0  9992
2 25876  51.7609 105.1813 0506944  55.2273 309.5303 14.10891504331754
HELIOS 1B               
1 25977U 99064A   25212.61691104  .00001494  00000+0  17505-3 0  9996
2 25977  98.1889 103.3208 0002459  77.5624 282.5865 14.86595599652407
TERRA                   
1 25994U 99068A   25212.63207214  .00000462  00000+0  10396-3 0  9991
2 25994  97.9952 269.0787 0003067 136.8868 340.0619 14.60748313362806
SL-16 R/B               
1 26070U 00006B   25212.37582056  .00000198  00000+0  12485-3 0  9999
2 26070  71.0001 203.1637 0015925 165.9177 194.2393 14.15778974317236
TITAN 4B R/B            
1 26474U 00047B   25212.63365431  .00003200  00000+0  21400-3 0  9991
2 26474  67.9908 301.0638 0047974 287.4934  72.0974 15.07438524359570
ENVISAT                 
1 27386U 02009A   25212.65547816  .00000116  00000+0  51314-4 0  9996
2 27386  98.3362 166.9744 0001258  82.7292  90.7627 14.38932076227388
IDEFIX & ARIANE 42P R/B 
1 27422U 02021B   25212.53286218  .00000268  00000+0  11883-3 0  9998
2 27422  98.5609 149.1243 0012874 115.7632 244.4881 14.30817183210490
AQUA                    
1 27424U 02022A   25212.57574117  .00000933  00000+0  19856-3 0  9990
2 27424  98.3805 171.4935 0000731  86.7335 331.4267 14.61376033236435
CZ-4B R/B               
1 27432U 02024C   25212.61249302  .00000026  00000+0  36860-4 0  9999
2 27432  98.9205 261.6875 0049171 291.0126 182.9796 14.14493535197986
MIDORI II (ADEOS-II)    
1 27597U 02056A   25212.57226178  .00000287  00000+0  13092-3 0  9997
2 27597  98.7400 165.0068 0000434  28.2503 331.8702 14.29077170178713
H-2A R/B                
1 27601U 02056E   25212.54612890  .00000318  00000+0  12595-3 0  9992
2 27601  98.2823 176.8226 0071722 100.4990  16.3214 14.33534638182428
CZ-4B R/B               
1 28059U 03049C   25212.47900858  .00000351  00000+0  92444-4 0  9998
2 28059  98.6625 194.0748 0048265 185.4255 174.6424 14.54718194154439
CZ-2C R/B               
1 28222U 04012C   25212.59801501  .00023623  00000+0  47982-3 0  9992
2 28222  97.7629 255.0962 0022732  40.7628 319.5316 15.46055840169945
